OBJECT_NAME,OBJECT_ID,EPOCH,MEAN_MOTION,ECCENTRICITY,INCLINATION,RA_OF_ASC_NODE,ARG_OF_PERICENTER,MEAN_ANOMALY,EPHEMERIS_TYPE,CLASSIFICATION_TYPE,NORAD_CAT_ID,ELEMENT_SET_NO,REV_AT_EPOCH,BSTAR,MEAN_MOTION_DOT,MEAN_MOTION_DDOT
COSMOS 2251,1993-036A,2024-10-05T17:43:14.510496,14.32983537,0.0025492,74.0418,26.9105,219.0823,140.8487,0,U,22675,999,63570,0.00035043,9.36e-06,0
COSMOS 2251 DEB,1993-036E,2024-10-05T20:27:36.884736,14.32396284,0.0014392,74.0388,33.763,160.2394,335.8678,0,U,33757,999,81803,0.00028417,7.43e-06,0
COSMOS 2251 DEB,1993-036F,2024-10-06T04:01:52.766112,14.46514433,0.0015775,74.0299,307.0633,119.8162,301.3771,0,U,33758,999,82092,0.002941,0.00010596,0
COSMOS 2251 DEB,1993-036G,2024-10-06T01:28:48.384768,14.87504625,0.0006411,74.0074,136.4116,109.6125,41.9112,0,U,33759,999,82629,0.014817,0.00137113,0
COSMOS 2251 DEB,1993-036H,2024-10-05T22:35:33.508320,14.35192275,0.0020815,74.0347,355.5159,205.3651,329.0465,0,U,33760,999,81923,0.00061898,1.748e-05,0
COSMOS 2251 DEB,1993-036J,2024-10-05T22:24:44.792928,14.40359866,0.0022218,74.039,334.0091,166.7857,6.6492,0,U,33761,999,81997,0.0023823,7.562e-05,0
COSMOS 2251 DEB,1993-036K,2024-10-05T17:11:59.847360,14.33430426,0.0015556,74.044,21.5685,197.1158,284.1413,0,U,33762,999,81842,0.00036395,9.8e-06,0
COSMOS 2251 DEB,1993-036M,2024-10-05T16:29:17.600928,14.37931122,0.0022807,74.0373,351.4953,57.7657,65.1658,0,U,33764,999,81928,0.0017173,5.18e-05,0
COSMOS 2251 DEB,1993-036N,2024-10-06T03:41:58.613568,14.83739454,0.0107601,74.016,328.7419,173.8671,217.8765,0,U,33765,999,83155,0.0040967,0.0003772,0
COSMOS 2251 DEB,1993-036P,2024-10-05T20:38:00.706560,14.32653458,0.0066067,74.1895,199.8495,167.3094,192.9741,0,U,33766,999,81540,0.0027681,7.692e-05,0
COSMOS 2251 DEB,1993-036R,2024-10-05T21:39:55.878912,13.57781594,0.0367468,74.0706,198.1543,92.2064,337.525,0,U,33768,999,77419,0.0027977,3.11e-05,0
COSMOS 2251 DEB,1993-036U,2024-10-06T02:58:10.520832,14.57152893,0.0020921,74.0453,281.9454,60.5356,6.798,0,U,33779,999,82201,0.0083764,0.00038089,0
COSMOS 2251 DEB,1993-036X,2024-10-05T16:26:27.134592,14.38494421,0.0020343,74.0374,357.4063,174.745,312.5627,0,U,33782,999,81894,0.0022724,6.94e-05,0
COSMOS 2251 DEB,1993-036Z,2024-10-05T12:48:15.755616,14.95974983,0.0039792,74.1817,339.4802,314.6646,154.6291,0,U,33784,999,83518,0.0059138,0.0006797,0
COSMOS 2251 DEB,1993-036AA,2024-10-05T19:43:16.791168,14.57294837,0.0027849,73.8746,181.1246,218.6965,202.6911,0,U,33785,999,82167,0.0076857,0.00035117,0
COSMOS 2251 DEB,1993-036AE,2024-10-05T23:21:08.697312,13.87702195,0.0242942,74.0623,101.3428,317.0632,197.4794,0,U,33789,999,79096,0.0015769,2.336e-05,0
COSMOS 2251 DEB,1993-036AG,2024-10-05T21:09:55.218240,14.39503786,0.0031025,74.1736,112.7503,69.3256,45.6152,0,U,33791,999,81814,0.0043727,0.00013714,0
COSMOS 2251 DEB,1993-036AH,2024-10-05T13:10:35.711616,13.44628088,0.0430376,73.901,316.6597,98.8542,14.5235,0,U,33792,999,76616,0.0024121,2.446e-05,0
COSMOS 2251 DEB,1993-036AJ,2024-10-05T21:50:50.312256,14.25174355,0.007895,73.9844,215.1661,103.4601,319.6434,0,U,33793,999,81034,0.0041153,9.973e-05,0
COSMOS 2251 DEB,1993-036AL,2024-10-06T03:45:34.593696,14.84414206,0.0051468,74.0397,229.545,69.8292,302.0462,0,U,33795,999,83561,0.0058444,0.00050654,0
COSMOS 2251 DEB,1993-036AN,2024-10-05T20:40:28.659648,14.5447707,0.0065791,74.0475,135.784,332.6635,38.4047,0,U,33797,999,82683,0.002159,9.447e-05,0
COSMOS 2251 DEB,1993-036AP,2024-10-06T02:40:50.811744,14.43737846,0.0091321,74.0308,221.2409,88.5823,283.7882,0,U,33798,999,82362,0.0011766,4.183e-05,0
COSMOS 2251 DEB,1993-036AQ,2024-10-05T20:42:43.723584,14.62424328,0.003423,74.0395,203.8427,25.4251,30.9059,0,U,33799,999,82442,0.0061612,0.00031564,0
COSMOS 2251 DEB,1993-036AW,2024-10-05T17:09:17.709984,14.55883214,0.0063482,74.0333,54.0244,349.8128,10.1743,0,U,33805,999,82920,0.0015862,7.131e-05,0
COSMOS 2251 DEB,1993-036BC,2024-10-05T20:27:29.880288,14.84254306,0.0046204,73.845,106.7218,280.0598,199.1903,0,U,33811,999,83547,0.0044629,0.00038279,0
COSMOS 2251 DEB,1993-036BE,2024-10-05T18:35:14.411904,15.01684889,0.0052596,74.0344,102.7503,274.7319,96.019,0,U,33813,999,83966,0.0049337,0.00066633,0
COSMOS 2251 DEB,1993-036BG,2024-10-05T12:17:30.357888,14.64780477,0.0028528,73.9757,323.07,148.1801,328.6345,0,U,33815,999,81936,0.010664,0.0005767,0
COSMOS 2251 DEB,1993-036BH,2024-10-05T22:36:55.737792,13.80552951,0.0269772,73.8946,118.47,212.9639,145.4416,0,U,33816,999,78703,0.0028435,3.9e-05,0
COSMOS 2251 DEB,1993-036BJ,2024-10-05T19:58:49.418688,15.10407788,0.0015058,74.0446,196.5255,26.3437,333.8518,0,U,33817,999,83723,0.0096191,0.00162068,0
COSMOS 2251 DEB,1993-036BK,2024-10-05T11:49:58.592064,14.83276463,0.0048163,74.0896,321.5132,71.1349,43.1033,0,U,33818,999,83375,0.0041126,0.00034481,0
COSMOS 2251 DEB,1993-036BL,2024-10-05T18:40:08.702400,14.29325555,0.0095747,74.1796,271.5271,254.9723,159.0863,0,U,33819,999,81302,0.0038896,0.00010395,0
COSMOS 2251 DEB,1993-036BN,2024-10-05T21:14:13.469568,15.02167983,0.0084167,74.045,321.7619,114.545,57.5267,0,U,33821,999,68450,0.0025878,0.00036932,0
COSMOS 2251 DEB,1993-036BP,2024-10-05T07:44:39.476832,14.08778768,0.0162198,74.0772,236.596,29.5869,119.4285,0,U,33822,999,79939,0.011936,0.00023286,0
COSMOS 2251 DEB,1993-036BQ,2024-10-05T20:25:34.296960,13.97236048,0.0212291,73.8126,187.0708,26.5618,35.3718,0,U,33823,999,79559,0.0047969,8.113e-05,0
COSMOS 2251 DEB,1993-036BR,2024-10-06T03:21:12.669408,15.18776089,0.0028191,74.0007,228.6375,83.7307,287.6446,0,U,33824,999,83513,0.012201,0.00265603,0
COSMOS 2251 DEB,1993-036BS,2024-10-05T21:13:51.286368,14.59857556,0.0100295,73.9886,143.9653,215.3786,155.6525,0,U,33825,999,82538,0.0048562,0.00024988,0
COSMOS 2251 DEB,1993-036BT,2024-10-05T21:06:35.254944,14.42749635,0.0095111,74.065,138.2825,294.3421,75.2439,0,U,33826,999,81506,0.0081837,0.00028883,0
COSMOS 2251 DEB,1993-036BV,2024-10-05T20:21:42.877152,14.41939125,0.0028182,74.0485,321.8004,145.8377,28.7876,0,U,33828,999,82067,0.0020862,6.849e-05,0
COSMOS 2251 DEB,1993-036BX,2024-10-05T15:04:16.685760,14.6876213,0.0048316,74.0388,354.6739,230.2622,241.1669,0,U,33830,999,83093,0.004215,0.00025079,0
COSMOS 2251 DEB,1993-036BZ,2024-10-05T11:58:31.923840,14.51816768,0.0026555,74.0572,311.7165,88.7404,28.9575,0,U,33832,999,82115,0.0043225,0.00017493,0
COSMOS 2251 DEB,1993-036CB,2024-10-05T11:50:07.917216,15.03655594,0.0026359,74.0602,175.9753,333.2855,200.1471,0,U,33834,999,83791,0.0065677,0.00091749,0
COSMOS 2251 DEB,1993-036CC,2024-10-05T20:44:52.662624,14.55656401,0.0062216,74.0618,205.4219,9.1716,46.8596,0,U,33835,999,82474,0.00623,0.00028016,0
COSMOS 2251 DEB,1993-036CD,2024-10-05T13:51:10.416960,14.68231509,0.0031122,74.0042,26.7759,346.0896,24.9729,0,U,33836,999,57704,0.0051704,0.00030112,0
COSMOS 2251 DEB,1993-036CE,2024-10-05T22:03:48.658752,14.49016533,0.0034605,74.0132,149.5602,117.9454,242.5215,0,U,33837,999,82522,0.0014379,5.473e-05,0
COSMOS 2251 DEB,1993-036CF,2024-10-06T03:21:37.207872,14.46070792,0.0025999,74.0388,238.7231,108.5205,263.3728,0,U,33838,999,82332,0.0027251,9.75e-05,0
COSMOS 2251 DEB,1993-036CG,2024-10-05T20:53:26.016864,14.62270414,0.008696,74.0409,317.0099,181.4909,351.6456,0,U,33839,999,83247,0.0012528,6.646e-05,0
COSMOS 2251 DEB,1993-036CJ,2024-10-06T04:38:24.462816,14.36815866,0.0020602,74.0412,353.8854,187.3797,202.1133,0,U,33841,999,81947,0.0011357,3.338e-05,0
COSMOS 2251 DEB,1993-036CK,2024-10-05T20:20:52.271808,14.4103547,0.0046907,74.0336,302.2856,158.4138,201.9009,0,U,33842,999,82097,0.0015699,5.094e-05,0
COSMOS 2251 DEB,1993-036CL,2024-10-06T01:52:30.261792,15.09488537,0.0085266,73.9662,40.9127,299.4816,59.7889,0,U,33843,999,82833,0.010297,0.00183949,0
COSMOS 2251 DEB,1993-036CM,2024-10-05T21:17:43.204704,14.31912083,0.005058,74.066,122.1104,253.3292,224.2902,0,U,33844,999,81525,0.0019307,5.223e-05,0
COSMOS 2251 DEB,1993-036CR,2024-10-06T05:06:23.272704,14.39035834,0.0046787,74.0331,79.7373,244.2474,289.5577,0,U,33848,999,81647,0.0049244,0.00015414,0
COSMOS 2251 DEB,1993-036CT,2024-10-05T17:11:02.919264,14.87986189,0.0024102,74.0084,19.2525,271.1241,88.7178,0,U,33890,999,82941,0.010472,0.00097944,0
COSMOS 2251 DEB,1993-036CV,2024-10-05T18:45:46.141056,14.20898325,0.0119157,73.8051,170.6249,278.1805,149.1276,0,U,33892,999,80799,0.0031818,7.375e-05,0
COSMOS 2251 DEB,1993-036CX,2024-10-05T10:43:05.076192,13.18892695,0.0585684,73.7644,298.2301,278.9763,74.5507,0,U,33894,999,74989,0.0077253,7.464e-05,0
COSMOS 2251 DEB,1993-036CZ,2024-10-05T20:57:26.654688,14.16612036,0.0128436,73.77,221.2508,109.8457,312.6742,0,U,33896,999,80604,0.0036031,7.774e-05,0
COSMOS 2251 DEB,1993-036DC,2024-10-05T18:54:12.216096,14.55406445,0.0064105,74.0568,189.3749,1.8461,57.068,0,U,33899,999,82526,0.0046926,0.00020993,0
COSMOS 2251 DEB,1993-036DD,2024-10-05T21:23:40.625952,14.55065436,0.0050165,74.0185,102.7435,359.698,116.0529,0,U,33900,999,82732,0.0021029,9.206e-05,0
COSMOS 2251 DEB,1993-036DE,2024-10-05T22:37:26.327712,14.81707109,0.0070354,73.7791,219.6282,68.1531,292.7108,0,U,33901,999,83040,0.0092188,0.00076605,0
COSMOS 2251 DEB,1993-036DJ,2024-10-05T18:45:44.533152,14.32507949,0.0060898,73.8901,36.4533,11.4328,111.1366,0,U,33905,999,81480,0.0035977,9.941e-05,0
COSMOS 2251 DEB,1993-036DK,2024-10-05T17:47:54.368736,14.46809382,0.0041057,74.0348,58.4456,200.7319,280.6656,0,U,33906,999,81729,0.01003,0.00036896,0
COSMOS 2251 DEB,1993-036DL,2024-10-04T14:53:15.931392,14.22666235,0.0128046,74.0711,98.0436,262.941,191.9461,0,U,33907,999,80386,0.0085358,0.0002081,0
COSMOS 2251 DEB,1993-036DM,2024-10-05T22:17:55.550688,14.01499052,0.0238701,73.8406,250.9329,352.3186,7.4312,0,U,33908,999,79400,0.016233,0.00031572,0
COSMOS 2251 DEB,1993-036DQ,2024-10-06T04:30:57.885408,14.60158419,0.0020943,74.0959,275.505,332.3357,154.465,0,U,33911,999,82346,0.0066825,0.00032407,0
COSMOS 2251 DEB,1993-036DR,2024-10-05T06:24:30.681792,14.47362867,0.0009353,74.0352,283.8639,106.2144,265.9774,0,U,33912,999,82166,0.0040564,0.00014881,0
